[
    {
        "Altitude(m)": 562519.2823251734,
        "Argument of Periapsis(deg)": 0.033114955553567506,
        "Eccentricity": 0.0,
        "Inclination(deg)": 53.0,
        "Latitude(deg)": -30.08755065463916,
        "Longitude(deg)": 100.27688227740914,
        "Mean Anomaly(deg)": -38.63283566211208,
        "RAAN(deg)": 229.95071684264005,
        "Satellite Name": "Starlink Shell 1 1028",
        "Satellite Number": 1028,
        "Semi-Major Axis(m)": 6931778.249405717,
        "Time(s)": 950
    },
    {
        "Altitude(m)": 562344.1155707442,
        "Argument of Periapsis(deg)": 0.03346353403307874,
        "Eccentricity": 0.0,
        "Inclination(deg)": 53.0,
        "Latitude(deg)": -29.634570896912123,
        "Longitude(deg)": 100.73462469168892,
        "Mean Anomaly(deg)": -38.00600445855533,
        "RAAN(deg)": 229.9501980725626,
        "Satellite Name": "Starlink Shell 1 1028",
        "Satellite Number": 1028,
        "Semi-Major Axis(m)": 6931778.249405717,
        "Time(s)": 960
    },
    {
        "Altitude(m)": 562169.1658532937,
        "Argument of Periapsis(deg)": 0.03381211251258998,
        "Eccentricity": 0.0,
        "Inclination(deg)": 53.0,
        "Latitude(deg)": -29.179685896790343,
        "Longitude(deg)": 101.18793031106377,
        "Mean Anomaly(deg)": -37.379173254998555,
        "RAAN(deg)": 229.94967930248512,
        "Satellite Name": "Starlink Shell 1 1028",
        "Satellite Number": 1028,
        "Semi-Major Axis(m)": 6931778.249405717,
        "Time(s)": 970
    },
    {
        "Altitude(m)": 561994.4984554533,
        "Argument of Periapsis(deg)": 0.034160690992101214,
        "Eccentricity": 0.0,
        "Inclination(deg)": 53.0,
        "Latitude(deg)": -28.722945698928722,
        "Longitude(deg)": 101.6369015879236,
        "Mean Anomaly(deg)": -36.752342051441886,
        "RAAN(deg)": 229.94916053240766,
        "Satellite Name": "Starlink Shell 1 1028",
        "Satellite Number": 1028,
        "Semi-Major Axis(m)": 6931778.249405717,
        "Time(s)": 980
    },
    {
        "Altitude(m)": 561820.1783873265,
        "Argument of Periapsis(deg)": 0.034509269471612446,
        "Eccentricity": 0.0,
        "Inclination(deg)": 53.0,
        "Latitude(deg)": -28.264399254367103,
        "Longitude(deg)": 102.08164018812911,
        "Mean Anomaly(deg)": -36.12551084788527,
        "RAAN(deg)": 229.9486417623302,
        "Satellite Name": "Starlink Shell 1 1028",
        "Satellite Number": 1028,
        "Semi-Major Axis(m)": 6931778.249405717,
        "Time(s)": 990
    }
]